[
  {
    "OBJECT_NAME": "STARLINK-32181",
    "OBJECT_ID": "24136W",
    "EPOCH": "2025-11-11T05:42:52.717824",
    "MEAN_MOTION": 15.30193302,
    "ECCENTRICITY": 0.0001654,
    "INCLINATION": 53.1622,
    "RA_OF_ASC_NODE": 265.5346,
    "ARG_OF_PERICENTER": 91.8808,
    "MEAN_ANOMALY": 268.2382,
    "EPHEMERIS_TYPE": 0,
    "CLASSIFICATION_TYPE": "U",
    "NORAD_CAT_ID": 60349,
    "ELEMENT_SET_NO": 999,
    "REV_AT_EPOCH": 7153,
    "BSTAR": 6.816100000000001e-05,
    "MEAN_MOTION_DOT": 1.659e-05,
    "MEAN_MOTION_DDOT": 0.0,
    "TLE_LINE1": "1 60349U 24136W   25315.23811016  .00001659  00000+0  68161-4 0  9992",
    "TLE_LINE2": "2 60349  53.1622 265.5346 0001654  91.8808 268.2382 15.30193302 71538",
    "COMMENT": "Grouped by shell and plane from TLE"
  },
  {
    "OBJECT_NAME": "STARLINK-32076",
    "OBJECT_ID": "24136X",
    "EPOCH": "2025-11-11T05:47:25.872288",
    "MEAN_MOTION": 15.30196272,
    "ECCENTRICITY": 0.0001387,
    "INCLINATION": 53.1631,
    "RA_OF_ASC_NODE": 265.5542,
    "ARG_OF_PERICENTER": 104.3028,
    "MEAN_ANOMALY": 255.8127,
    "EPHEMERIS_TYPE": 0,
    "CLASSIFICATION_TYPE": "U",
    "NORAD_CAT_ID": 60350,
    "ELEMENT_SET_NO": 999,
    "REV_AT_EPOCH": 7153,
    "BSTAR": 6.2524e-05,
    "MEAN_MOTION_DOT": 1.493e-05,
    "MEAN_MOTION_DDOT": 0.0,
    "TLE_LINE1": "1 60350U 24136X   25315.24127167  .00001493  00000+0  62524-4 0  9995",
    "TLE_LINE2": "2 60350  53.1631 265.5542 0001387 104.3028 255.8127 15.30196272 71533",
    "COMMENT": "Grouped by shell and plane from TLE"
  },
  {
    "OBJECT_NAME": "STARLINK-32097",
    "OBJECT_ID": "24136Y",
    "EPOCH": "2025-11-11T07:12:22.915872",
    "MEAN_MOTION": 15.3020105,
    "ECCENTRICITY": 0.0001471,
    "INCLINATION": 53.1604,
    "RA_OF_ASC_NODE": 265.2098,
    "ARG_OF_PERICENTER": 86.2891,
    "MEAN_ANOMALY": 273.8278,
    "EPHEMERIS_TYPE": 0,
    "CLASSIFICATION_TYPE": "U",
    "NORAD_CAT_ID": 60351,
    "ELEMENT_SET_NO": 999,
    "REV_AT_EPOCH": 7154,
    "BSTAR": 0.00018329999999999998,
    "MEAN_MOTION_DOT": 5.073e-05,
    "MEAN_MOTION_DDOT": 0.0,
    "TLE_LINE1": "1 60351U 24136Y   25315.30026523  .00005073  00000+0  18330-3 0  9990",
    "TLE_LINE2": "2 60351  53.1604 265.2098 0001471  86.2891 273.8278 15.30201050 71546",
    "COMMENT": "Grouped by shell and plane from TLE"
  },
  {
    "OBJECT_NAME": "STARLINK-32680",
    "OBJECT_ID": "24249Q",
    "EPOCH": "2025-11-11T05:19:58.731456",
    "MEAN_MOTION": 15.27630964,
    "ECCENTRICITY": 0.0001105,
    "INCLINATION": 42.9986,
    "RA_OF_ASC_NODE": 263.2813,
    "ARG_OF_PERICENTER": 250.6255,
    "MEAN_ANOMALY": 109.4478,
    "EPHEMERIS_TYPE": 0,
    "CLASSIFICATION_TYPE": "U",
    "NORAD_CAT_ID": 62423,
    "ELEMENT_SET_NO": 999,
    "REV_AT_EPOCH": 4969,
    "BSTAR": 0.0016968,
    "MEAN_MOTION_DOT": 0.000468,
    "MEAN_MOTION_DDOT": 0.0,
    "TLE_LINE1": "1 62423U 24249Q   25315.22220754  .00046800  00000+0  16968-2 0  9997",
    "TLE_LINE2": "2 62423  42.9986 263.2813 0001105 250.6255 109.4478 15.27630964 49698",
    "COMMENT": "Grouped by shell and plane from TLE"
  },
  {
    "OBJECT_NAME": "STARLINK-32676",
    "OBJECT_ID": "24249T",
    "EPOCH": "2025-11-11T05:55:07.982688",
    "MEAN_MOTION": 15.2764059,
    "ECCENTRICITY": 0.0001109,
    "INCLINATION": 43.0017,
    "RA_OF_ASC_NODE": 263.469,
    "ARG_OF_PERICENTER": 252.8437,
    "MEAN_ANOMALY": 107.2294,
    "EPHEMERIS_TYPE": 0,
    "CLASSIFICATION_TYPE": "U",
    "NORAD_CAT_ID": 62426,
    "ELEMENT_SET_NO": 999,
    "REV_AT_EPOCH": 4969,
    "BSTAR": 0.0016211,
    "MEAN_MOTION_DOT": 0.000447,
    "MEAN_MOTION_DDOT": 0.0,
    "TLE_LINE1": "1 62426U 24249T   25315.24662017  .00044700  00000+0  16211-2 0  9992",
    "TLE_LINE2": "2 62426  43.0017 263.4690 0001109 252.8437 107.2294 15.27640590 49691",
    "COMMENT": "Grouped by shell and plane from TLE"
  },
  {
    "OBJECT_NAME": "STARLINK-32659",
    "OBJECT_ID": "24249U",
    "EPOCH": "2025-11-11T05:34:46.810272",
    "MEAN_MOTION": 15.27635411,
    "ECCENTRICITY": 9.61e-05,
    "INCLINATION": 43.0,
    "RA_OF_ASC_NODE": 263.3612,
    "ARG_OF_PERICENTER": 242.1216,
    "MEAN_ANOMALY": 117.9538,
    "EPHEMERIS_TYPE": 0,
    "CLASSIFICATION_TYPE": "U",
    "NORAD_CAT_ID": 62427,
    "ELEMENT_SET_NO": 999,
    "REV_AT_EPOCH": 4969,
    "BSTAR": 0.0012887,
    "MEAN_MOTION_DOT": 0.0003543,
    "MEAN_MOTION_DDOT": 0.0,
    "TLE_LINE1": "1 62427U 24249U   25315.23248623  .00035430  00000+0  12887-2 0  9990",
    "TLE_LINE2": "2 62427  43.0000 263.3612 0000961 242.1216 117.9538 15.27635411 49694",
    "COMMENT": "Grouped by shell and plane from TLE"
  },
  {
    "OBJECT_NAME": "STARLINK-32418",
    "OBJECT_ID": "24249W",
    "EPOCH": "2025-11-11T06:30:04.683456",
    "MEAN_MOTION": 15.27635469,
    "ECCENTRICITY": 0.0001766,
    "INCLINATION": 43.0009,
    "RA_OF_ASC_NODE": 262.7868,
    "ARG_OF_PERICENTER": 253.9156,
    "MEAN_ANOMALY": 106.1502,
    "EPHEMERIS_TYPE": 0,
    "CLASSIFICATION_TYPE": "U",
    "NORAD_CAT_ID": 62429,
    "ELEMENT_SET_NO": 999,
    "REV_AT_EPOCH": 4970,
    "BSTAR": 0.0011691,
    "MEAN_MOTION_DOT": 0.00032105,
    "MEAN_MOTION_DDOT": 0.0,
    "TLE_LINE1": "1 62429U 24249W   25315.27088754  .00032105  00000+0  11691-2 0  9991",
    "TLE_LINE2": "2 62429  43.0009 262.7868 0001766 253.9156 106.1502 15.27635469 49704",
    "COMMENT": "Grouped by shell and plane from TLE"
  },
  {
    "OBJECT_NAME": "STARLINK-33702",
    "OBJECT_ID": "25076Y",
    "EPOCH": "2025-11-11T08:00:03.000384",
    "MEAN_MOTION": 15.27530518,
    "ECCENTRICITY": 0.0001716,
    "INCLINATION": 43.0024,
    "RA_OF_ASC_NODE": 269.867,
    "ARG_OF_PERICENTER": 286.9563,
    "MEAN_ANOMALY": 19.594,
    "EPHEMERIS_TYPE": 0,
    "CLASSIFICATION_TYPE": "U",
    "NORAD_CAT_ID": 63591,
    "ELEMENT_SET_NO": 999,
    "REV_AT_EPOCH": 582,
    "BSTAR": 0.0030488,
    "MEAN_MOTION_DOT": 0.00084472,
    "MEAN_MOTION_DDOT": 0.0,
    "TLE_LINE1": "1 63591U 25076Y   25315.33336806  .00084472  00000+0  30488-2 0  9991",
    "TLE_LINE2": "2 63591  43.0024 269.8670 0001716 286.9563  19.5940 15.27530518  5821",
    "COMMENT": "Grouped by shell and plane from TLE"
  }
]